     2.10           NAVIGATION DATA                         RINEX VERSION / TYPE
SPIDER V4,0,0,3554                      2015 03 18 00:33    PGM / RUN BY / DATE 
   1.5832D-08 -7.4506D-09 -5.9605D-08  5.9605D-08           ION ALPHA           
   1.2288D+05 -6.5536D+04 -1.3107D+05 -6.5536D+04           ION BETA            
   -9.313225746155D-10 2.664535259100D-15   405504     1832 DELTA-UTC: A0,A1,T,W
    16                                                      LEAP SECONDS        
                                                            END OF HEADER       
22 15 02 17 06 00  0.0 3.192117437720D-04 4.320099833421D-12 0.000000000000D+00
    7.300000000000D+01 4.621875000000D+01 5.657378565616D-09-1.995278848607D+00
    2.309679985046D-06 7.487256661989D-03 6.156042218208D-06 5.153691009521D+03
    1.944000000000D+05 1.452863216400D-07 8.523413722394D-01-1.285225152969D-07
    9.230030935494D-01 2.402500000000D+02-2.068385050437D+00-8.493925562902D-09
    4.764484362596D-10 1.000000000000D+00 1.832000000000D+03 0.000000000000D+00
    2.000000000000D+00 0.000000000000D+00-1.769512891769D-08 7.300000000000D+01
    1.944000000000D+05 0.000000000000D+00
27 15 02 17 06 00  0.0 5.201483145356D-05 2.614797267597D-12 0.000000000000D+00
    8.500000000000D+01-1.208437500000D+02 4.743054837775D-09-2.926976206205D+00
   -6.223097443581D-06 1.983115798794D-03 3.941357135773D-06 5.153687614441D+03
    1.944000000000D+05-1.490116119385D-08-1.228912027884D+00 1.862645149231D-08
    9.660287036131D-01 3.070312500000D+02 1.369541437298D-01-8.422493813498D-09
   -3.996594999389D-10 1.000000000000D+00 1.832000000000D+03 0.000000000000D+00
    2.000000000000D+00 0.000000000000D+00 1.862645149231D-09 8.500000000000D+01
    1.944000000000D+05 0.000000000000D+00
32 15 02 17 06 00  0.0-2.217590808868D-04 9.094947017729D-12 0.000000000000D+00
    9.700000000000D+01 3.987500000000D+01 5.231289179619D-09 9.967426833164D-01
    2.089887857437D-06 1.132119016256D-02 5.925074219704D-06 5.153566572189D+03
    1.944000000000D+05 7.264316082001D-08 9.508682216953D-01 2.346932888031D-07
    9.469952675026D-01 2.565937500000D+02 2.040275669100D-02-8.431779718876D-09
    3.260850200970D-10 1.000000000000D+00 1.832000000000D+03 0.000000000000D+00
    2.000000000000D+00 0.000000000000D+00-3.725290298462D-09 9.700000000000D+01
    1.944000000000D+05 0.000000000000D+00
 3 15 02 17 06 00  0.0 2.134889364243D-04 2.046363078989D-11 0.000000000000D+00
    6.600000000000D+01 4.228125000000D+01 4.899489702836D-09-2.879735506371D+00
    2.121552824974D-06 9.469551732764D-04 6.830319762230D-06 5.153739397049D+03
    1.944000000000D+05-1.117587089539D-08 8.677343513387D-01-1.862645149231D-08
    9.593422185570D-01 2.453125000000D+02-2.971861152963D+00-8.219270597465D-09
    4.685909438251D-10 1.000000000000D+00 1.832000000000D+03 0.000000000000D+00
    2.000000000000D+00 0.000000000000D+00 1.396983861923D-09 6.600000000000D+01
    1.944000000000D+05 0.000000000000D+00
28 15 02 17 06 00  0.0 4.200683906674D-04 2.614797267597D-12 0.000000000000D+00
    2.000000000000D+01 9.228125000000D+01 4.108385631696D-09-2.215621673765D+00
    4.950910806656D-06 1.968778157607D-02 2.259388566017D-06 5.153692375183D+03
    1.944000000000D+05 2.253800630569D-07-2.204801802914D+00 1.695007085800D-07
    9.883112997955D-01 3.447812500000D+02-1.670464145560D+00-7.894971787437D-09
    4.989493818108D-10 1.000000000000D+00 1.832000000000D+03 0.000000000000D+00
    2.000000000000D+00 0.000000000000D+00-1.117587089539D-08 2.000000000000D+01
    1.944000000000D+05 0.000000000000D+00
27 15 02 17 05 59 44.0 5.201576277614D-05 2.614797267597D-12 0.000000000000D+00
    0.000000000000D+00-1.208437500000D+02 4.743054837775D-09-2.929312101630D+00
   -6.223097443581D-06 1.983118243515D-03 3.941357135773D-06 5.153687623978D+03
    1.943840000000D+05-1.490116119385D-08-1.228911868426D+00 1.862645149231D-08
    9.660287006872D-01 3.070312500000D+02 1.369562400914D-01-8.422493813498D-09
   -3.996594999389D-10 1.000000000000D+00 1.832000000000D+03 0.000000000000D+00
    2.000000000000D+00 0.000000000000D+00 1.862645149231D-09 0.000000000000D+00
    1.943840000000D+05 0.000000000000D+00
28 15 02 17 05 59 44.0 4.200683906674D-04 2.614797267597D-12 0.000000000000D+00
    2.300000000000D+01 9.228125000000D+01 4.108028139882D-09-2.217955427478D+00
    4.950910806656D-06 1.968777936418D-02 2.259388566017D-06 5.153692375183D+03
    1.943840000000D+05 2.253800630569D-07-2.204801677103D+00 1.695007085800D-07
    9.883112910180D-01 3.447812500000D+02-1.670464100209D+00-7.894971787437D-09
    4.985922230638D-10 1.000000000000D+00 1.832000000000D+03 0.000000000000D+00
    2.000000000000D+00 0.000000000000D+00-1.117587089539D-08 2.300000000000D+01
    1.943840000000D+05 0.000000000000D+00
23 15 02 17 06 00  0.0-8.933059871197D-05-2.614797267597D-12 0.000000000000D+00
    7.700000000000D+01-5.028125000000D+01 5.093069077589D-09 2.023100495902D+00
   -2.583488821983D-06 9.766100905836D-03 7.122755050659D-06 5.153655294418D+03
    1.944000000000D+05-1.769512891769D-07 1.921771028951D+00 1.117587089539D-08
    9.488865894380D-01 2.392500000000D+02-2.711610098153D+00-8.367491588501D-09
   -6.296690946428D-10 1.000000000000D+00 1.832000000000D+03 0.000000000000D+00
    2.000000000000D+00 0.000000000000D+00-2.002343535423D-08 7.700000000000D+01
    1.944000000000D+05 0.000000000000D+00
 1 15 02 17 08 00  0.0-8.918810635805D-06 4.547473508865D-13 0.000000000000D+00
    6.900000000000D+01-7.506250000000D+01 4.174816936597D-09 2.135215158156D+00
   -3.769993782043D-06 3.866664366797D-03 1.360289752483D-05 5.153682104111D+03
    2.016000000000D+05-1.117587089539D-07-1.724108584957D-01 5.029141902924D-08
    9.623432106689D-01 1.176250000000D+02 4.048905348017D-01-7.774966448437D-09
    2.264380072337D-10 1.000000000000D+00 1.832000000000D+03 0.000000000000D+00
    2.000000000000D+00 0.000000000000D+00 5.587935447693D-09 6.900000000000D+01
    2.016000000000D+05 0.000000000000D+00
11 15 02 17 08 00  0.0-5.584438331425D-04-2.614797267597D-12 0.000000000000D+00
    1.050000000000D+02-1.382812500000D+02 5.853458162619D-09 1.629639084666D+00
   -7.325783371925D-06 1.560638716910D-02 1.140497624874D-05 5.153738559723D+03
    2.016000000000D+05-1.471489667892D-07-5.157422584152D-01-3.911554813385D-07
    8.927313890914D-01 1.256250000000D+02 1.382622880021D+00-8.698576969834D-09
   -9.250385180071D-11 1.000000000000D+00 1.832000000000D+03 0.000000000000D+00
    2.000000000000D+00 0.000000000000D+00-1.210719347000D-08 1.050000000000D+02
    2.016000000000D+05 0.000000000000D+00
 3 15 02 17 08 00  0.0 2.136356197298D-04 2.034994395217D-11 0.000000000000D+00
    9.900000000000D+01 4.025000000000D+01 4.923419449909D-09-1.829797833053D+00
    2.047047019005D-06 9.471768280491D-04 6.796792149544D-06 5.153738834381D+03
    2.016000000000D+05 2.048909664154D-08 8.676749890489D-01-2.048909664154D-08
    9.593456081382D-01 2.457187500000D+02-2.971654972215D+00-8.235700121872D-09
    4.893060956412D-10 1.000000000000D+00 1.832000000000D+03 0.000000000000D+00
    2.000000000000D+00 0.000000000000D+00 1.396983861923D-09 9.900000000000D+01
    2.016000000000D+05 0.000000000000D+00
 4 15 02 17 08 00  0.0-7.333699613810D-06-6.821210263297D-13 0.000000000000D+00
    8.100000000000D+01-7.246875000000D+01 4.678766263311D-09 1.938477685079D+00
   -3.842636942863D-06 1.102735789027D-02 1.391209661961D-05 5.153738489151D+03
    2.016000000000D+05-1.937150955200D-07-1.924042190252D-01-2.011656761169D-07
    9.399754126746D-01 9.918750000000D+01 1.051920199419D+00-7.999618745202D-09
    2.200091636650D-10 1.000000000000D+00 1.832000000000D+03 0.000000000000D+00
    2.000000000000D+00 0.000000000000D+00-6.519258022308D-09 8.100000000000D+01
    2.016000000000D+05 0.000000000000D+00
14 15 02 17 08 00  0.0 8.665211498737D-05-3.524291969370D-12 0.000000000000D+00
    8.000000000000D+00-3.653125000000D+01 4.505544826117D-09-2.142456390525D+00
   -1.907348632813D-06 7.744051981717D-03 8.024275302887D-06 5.153778680801D+03
    2.016000000000D+05 1.434236764908D-07 1.991858230148D+00-6.146728992462D-08
    9.671511860261D-01 2.291875000000D+02-1.970846447494D+00-7.863184769974D-09
   -5.978820216690D-10 1.000000000000D+00 1.832000000000D+03 0.000000000000D+00
    2.000000000000D+00 0.000000000000D+00-9.313225746155D-09 8.000000000000D+00
    2.016000000000D+05 0.000000000000D+00
19 15 02 17 08 00  0.0-5.008615553379D-04-1.364242052659D-12 0.000000000000D+00
    1.900000000000D+01-1.456562500000D+02 4.636978800932D-09-2.767608928649D+00
   -7.558614015579D-06 1.094477705192D-02 5.207955837250D-06 5.153697854996D+03
    2.016000000000D+05-2.793967723846D-08-1.131812291588D+00-1.862645149231D-07
    9.683069425108D-01 2.835937500000D+02 5.195207534504D-01-8.234271930974D-09
   -3.928735115011D-10 1.000000000000D+00 1.832000000000D+03 0.000000000000D+00
    2.000000000000D+00 0.000000000000D+00-1.490116119385D-08 1.900000000000D+01
    2.016000000000D+05 0.000000000000D+00
23 15 02 17 08 00  0.0-8.934922516346D-05-2.614797267597D-12 0.000000000000D+00
    7.800000000000D+01-4.825000000000D+01 5.062353647389D-09 3.073347942124D+00
   -2.564862370491D-06 9.766838629730D-03 7.255002856255D-06 5.153653638840D+03
    2.016000000000D+05-2.793967723846D-08 1.921711238027D+00-1.117587089539D-07
    9.488830009000D-01 2.331562500000D+02-2.711660723896D+00-8.188198563630D-09
   -5.964534421921D-10 1.000000000000D+00 1.832000000000D+03 0.000000000000D+00
    2.000000000000D+00 0.000000000000D+00-2.002343535423D-08 7.800000000000D+01
    2.016000000000D+05 0.000000000000D+00
